start=new Date('2023-06-26T00:00:00.000Z').valueOf();
sats=[{"CLASSIFICATION_TYPE":"U","RCS_SIZE":"LARGE","REV_AT_EPOCH":"5281","OBJECT_NAME":"STARLINK-4280","INCLINATION":"53.2157","BSTAR":"0.00023040000000","APOAPSIS":"540.305","TLE_LINE2":"2 53178  53.2157 279.6226 0000861  93.3158 266.7933 15.08851843 52812","OBJECT_TYPE":"PAYLOAD","MEAN_ELEMENT_THEORY":"SGP4","EPOCH":"2023-06-25T15:30:16.878816","EPHEMERIS_TYPE":"0","MEAN_MOTION":"15.08851843","ECCENTRICITY":"0.00008610","SITE":"AFETR","COUNTRY_CODE":"US","PERIOD":"95.437","MEAN_MOTION_DOT":"0.00003382","REF_FRAME":"TEME","CENTER_NAME":"EARTH","GP_ID":"234550018","NORAD_CAT_ID":"53178","TLE_LINE1":"1 53178U 22083AY  23176.64602869  .00003382  00000-0  23040-3 0  9997","FILE":"3942649","OBJECT_ID":"2022-083AY","TIME_SYSTEM":"UTC","SEMIMAJOR_AXIS":"6917.844","LAUNCH_DATE":"2022-07-17","ARG_OF_PERICENTER":"93.3158","DECAY_DATE":null,"PERIAPSIS":"539.114","MEAN_ANOMALY":"266.7933","MEAN_MOTION_DDOT":"0.0000000000000","ELEMENT_SET_NO":"999","RA_OF_ASC_NODE":"279.6226"},{"FILE":"3942387","OBJECT_ID":"2022-083AZ","TIME_SYSTEM":"UTC","SEMIMAJOR_AXIS":"6917.867","NORAD_CAT_ID":"53179","GP_ID":"234542841","TLE_LINE1":"1 53179U 22083AZ  23176.43990867  .00001819  00000-0  13230-3 0  9996","MEAN_MOTION_DDOT":"0.0000000000000","ELEMENT_SET_NO":"999","RA_OF_ASC_NODE":"240.1459","LAUNCH_DATE":"2022-07-17","DECAY_DATE":null,"PERIAPSIS":"538.987","ARG_OF_PERICENTER":"80.4057","MEAN_ANOMALY":"279.7057","OBJECT_NAME":"STARLINK-4276","REV_AT_EPOCH":"5336","INCLINATION":"53.2144","BSTAR":"0.00013230000000","CLASSIFICATION_TYPE":"U","RCS_SIZE":"LARGE","MEAN_MOTION":"15.08844225","EPHEMERIS_TYPE":"0","COUNTRY_CODE":"US","ECCENTRICITY":"0.00010780","SITE":"AFETR","REF_FRAME":"TEME","MEAN_MOTION_DOT":"0.00001819","PERIOD":"95.437","CENTER_NAME":"EARTH","APOAPSIS":"540.478","TLE_LINE2":"2 53179  53.2144 240.1459 0001078  80.4057 279.7057 15.08844225 53364","OBJECT_TYPE":"PAYLOAD","EPOCH":"2023-06-25T10:33:28.109088","MEAN_ELEMENT_THEORY":"SGP4"},{"APOAPSIS":"540.399","OBJECT_TYPE":"PAYLOAD","TLE_LINE2":"2 53180  53.2142 243.8315 0000971  82.6820 277.4282 15.08845928 53241","EPOCH":"2023-06-24T15:56:45.181248","MEAN_ELEMENT_THEORY":"SGP4","MEAN_MOTION":"15.08845928","EPHEMERIS_TYPE":"0","COUNTRY_CODE":"US","ECCENTRICITY":"0.00009710","SITE":"AFETR","REF_FRAME":"TEME","MEAN_MOTION_DOT":"0.00005276","PERIOD":"95.437","CENTER_NAME":"EARTH","CLASSIFICATION_TYPE":"U","RCS_SIZE":"LARGE","OBJECT_NAME":"STARLINK-4258","REV_AT_EPOCH":"5324","BSTAR":"0.00034926000000","INCLINATION":"53.2142","LAUNCH_DATE":"2022-07-17","PERIAPSIS":"539.056","DECAY_DATE":null,"ARG_OF_PERICENTER":"82.6820","MEAN_ANOMALY":"277.4282","MEAN_MOTION_DDOT":"0.0000000000000","ELEMENT_SET_NO":"999","RA_OF_ASC_NODE":"243.8315","NORAD_CAT_ID":"53180","GP_ID":"234535413","TLE_LINE1":"1 53180U 22083BA  23175.66441182  .00005276  00000-0  34926-3 0  9999","FILE":"3942066","OBJECT_ID":"2022-083BA","TIME_SYSTEM":"UTC","SEMIMAJOR_AXIS":"6917.862"},{"TLE_LINE1":"1 53181U 22083BB  23176.39209146  .00001711  00000-0  12554-3 0  9996","NORAD_CAT_ID":"53181","GP_ID":"234543656","TIME_SYSTEM":"UTC","SEMIMAJOR_AXIS":"6917.880","FILE":"3942423","OBJECT_ID":"2022-083BB","MEAN_ANOMALY":"257.7107","LAUNCH_DATE":"2022-07-17","ARG_OF_PERICENTER":"102.3982","PERIAPSIS":"539.142","DECAY_DATE":null,"RA_OF_ASC_NODE":"240.5554","MEAN_MOTION_DDOT":"0.0000000000000","ELEMENT_SET_NO":"999","RCS_SIZE":"LARGE","CLASSIFICATION_TYPE":"U","INCLINATION":"53.2144","BSTAR":"0.00012554000000","REV_AT_EPOCH":"5335","OBJECT_NAME":"STARLINK-4273","MEAN_ELEMENT_THEORY":"SGP4","EPOCH":"2023-06-25T09:24:36.702144","APOAPSIS":"540.348","TLE_LINE2":"2 53181  53.2144 240.5554 0000872 102.3982 257.7107 15.08840112 53351","OBJECT_TYPE":"PAYLOAD","PERIOD":"95.438","REF_FRAME":"TEME","MEAN_MOTION_DOT":"0.00001711","CENTER_NAME":"EARTH","EPHEMERIS_TYPE":"0","MEAN_MOTION":"15.08840112","SITE":"AFETR","ECCENTRICITY":"0.00008720","COUNTRY_CODE":"US"},{"RCS_SIZE":"LARGE","CLASSIFICATION_TYPE":"U","INCLINATION":"53.2154","BSTAR":"0.00011623000000","OBJECT_NAME":"STARLINK-4278","REV_AT_EPOCH":"5311","EPOCH":"2023-06-25T05:16:14.945952","MEAN_ELEMENT_THEORY":"SGP4","OBJECT_TYPE":"PAYLOAD","TLE_LINE2":"2 53182  53.2154 256.5268 0001064  80.1599 279.9513 15.08840342 53119","APOAPSIS":"540.480","CENTER_NAME":"EARTH","MEAN_MOTION_DOT":"0.00001563","REF_FRAME":"TEME","PERIOD":"95.438","COUNTRY_CODE":"US","SITE":"AFETR","ECCENTRICITY":"0.00010640","MEAN_MOTION":"15.08840342","EPHEMERIS_TYPE":"0","TLE_LINE1":"1 53182U 22083BC  23176.21961743  .00001563  00000-0  11623-3 0  9997","NORAD_CAT_ID":"53182","GP_ID":"234542740","SEMIMAJOR_AXIS":"6917.879","TIME_SYSTEM":"UTC","OBJECT_ID":"2022-083BC","FILE":"3942381","MEAN_ANOMALY":"279.9513","DECAY_DATE":null,"PERIAPSIS":"539.008","ARG_OF_PERICENTER":"80.1599","LAUNCH_DATE":"2022-07-17","RA_OF_ASC_NODE":"256.5268","ELEMENT_SET_NO":"999","MEAN_MOTION_DDOT":"0.0000000000000"},{"COUNTRY_CODE":"US","SITE":"AFETR","ECCENTRICITY":"0.00010670","MEAN_MOTION":"15.08846653","EPHEMERIS_TYPE":"0","CENTER_NAME":"EARTH","REF_FRAME":"TEME","MEAN_MOTION_DOT":"0.00001974","PERIOD":"95.437","TLE_LINE2":"2 53183  53.2149 244.6295 0001067  91.0035 269.1079 15.08846653 53312","OBJECT_TYPE":"PAYLOAD","APOAPSIS":"540.463","EPOCH":"2023-06-25T15:00:27.807840","MEAN_ELEMENT_THEORY":"SGP4","OBJECT_NAME":"STARLINK-4268","REV_AT_EPOCH":"5331","BSTAR":"0.00014202000000","INCLINATION":"53.2149","CLASSIFICATION_TYPE":"U","RCS_SIZE":"LARGE","ELEMENT_SET_NO":"999","MEAN_MOTION_DDOT":"0.0000000000000","RA_OF_ASC_NODE":"244.6295","DECAY_DATE":null,"PERIAPSIS":"538.987","ARG_OF_PERICENTER":"91.0035","LAUNCH_DATE":"2022-07-17","MEAN_ANOMALY":"269.1079","OBJECT_ID":"2022-083BD","FILE":"3942651","SEMIMAJOR_AXIS":"6917.860","TIME_SYSTEM":"UTC","NORAD_CAT_ID":"53183","GP_ID":"234549550","TLE_LINE1":"1 53183U 22083BD  23176.62532185  .00001974  00000-0  14202-3 0  9999"},{"PERIOD":"95.437","REF_FRAME":"TEME","MEAN_MOTION_DOT":"0.00003926","CENTER_NAME":"EARTH","EPHEMERIS_TYPE":"0","MEAN_MOTION":"15.08845481","SITE":"AFETR","ECCENTRICITY":"0.00011540","COUNTRY_CODE":"US","MEAN_ELEMENT_THEORY":"SGP4","EPOCH":"2023-06-25T10:28:09.859872","APOAPSIS":"540.527","OBJECT_TYPE":"PAYLOAD","TLE_LINE2":"2 53184  53.2147 240.1489 0001154  84.0257 276.0866 15.08845481 53366","INCLINATION":"53.2147","BSTAR":"0.00026457000000","REV_AT_EPOCH":"5336","OBJECT_NAME":"STARLINK-4257","RCS_SIZE":"LARGE","CLASSIFICATION_TYPE":"U","RA_OF_ASC_NODE":"240.1489","MEAN_MOTION_DDOT":"0.0000000000000","ELEMENT_SET_NO":"999","MEAN_ANOMALY":"276.0866","LAUNCH_DATE":"2022-07-17","ARG_OF_PERICENTER":"84.0257","PERIAPSIS":"538.930","DECAY_DATE":null,"TIME_SYSTEM":"UTC","SEMIMAJOR_AXIS":"6917.864","FILE":"3942419","OBJECT_ID":"2022-083BE","TLE_LINE1":"1 53184U 22083BE  23176.43622523  .00003926  00000-0  26457-3 0  9999","NORAD_CAT_ID":"53184","GP_ID":"234542754"},{"OBJECT_ID":"2022-084A","FILE":"3942679","SEMIMAJOR_AXIS":"6941.151","TIME_SYSTEM":"UTC","GP_ID":"234550432","NORAD_CAT_ID":"53189","TLE_LINE1":"1 53189U 22084A   23176.66544731  .00001068  00000-0  87698-4 0  9994","ELEMENT_SET_NO":"999","MEAN_MOTION_DDOT":"0.0000000000000","RA_OF_ASC_NODE":"237.6028","ARG_OF_PERICENTER":"123.7170","PERIAPSIS":"562.669","DECAY_DATE":null,"LAUNCH_DATE":"2022-07-22","MEAN_ANOMALY":"236.4102","REV_AT_EPOCH":"5146","OBJECT_NAME":"STARLINK-4391","BSTAR":"0.00008769800000","INCLINATION":"97.6553","CLASSIFICATION_TYPE":"U","RCS_SIZE":"LARGE","SITE":"AFWTR","ECCENTRICITY":"0.00005000","COUNTRY_CODE":"US","EPHEMERIS_TYPE":"0","MEAN_MOTION":"15.01258592","CENTER_NAME":"EARTH","PERIOD":"95.920","REF_FRAME":"TEME","MEAN_MOTION_DOT":"0.00001068","OBJECT_TYPE":"PAYLOAD","TLE_LINE2":"2 53189  97.6553 237.6028 0000500 123.7170 236.4102 15.01258592 51469","APOAPSIS":"563.363","MEAN_ELEMENT_THEORY":"SGP4","EPOCH":"2023-06-25T15:58:14.647584"},{"APOAPSIS":"564.103","OBJECT_TYPE":"PAYLOAD","TLE_LINE2":"2 53190  97.6540 237.6339 0001501  96.2557 263.8838 15.01243874 51464","EPOCH":"2023-06-25T16:37:52.131072","MEAN_ELEMENT_THEORY":"SGP4","MEAN_MOTION":"15.01243874","EPHEMERIS_TYPE":"0","COUNTRY_CODE":"US","ECCENTRICITY":"0.00015010","SITE":"AFWTR","REF_FRAME":"TEME","MEAN_MOTION_DOT":"-0.00006746","PERIOD":"95.920","CENTER_NAME":"EARTH","CLASSIFICATION_TYPE":"U","RCS_SIZE":"LARGE","OBJECT_NAME":"STARLINK-4332","REV_AT_EPOCH":"5146","INCLINATION":"97.6540","BSTAR":"-0.00052135000000","LAUNCH_DATE":"2022-07-22","DECAY_DATE":null,"PERIAPSIS":"562.020","ARG_OF_PERICENTER":"96.2557","MEAN_ANOMALY":"263.8838","MEAN_MOTION_DDOT":"0.0000000000000","ELEMENT_SET_NO":"999","RA_OF_ASC_NODE":"237.6339","GP_ID":"234550641","NORAD_CAT_ID":"53190","TLE_LINE1":"1 53190U 22084B   23176.69296448 -.00006746  00000-0 -52135-3 0  9995","FILE":"3942679","OBJECT_ID":"2022-084B","TIME_SYSTEM":"UTC","SEMIMAJOR_AXIS":"6941.197"},{"OBJECT_TYPE":"PAYLOAD","TLE_LINE2":"2 53191  97.6576 237.0887 0001640 107.2549 252.8855 15.01263765 51372","APOAPSIS":"564.139","MEAN_ELEMENT_THEORY":"SGP4","EPOCH":"2023-06-25T02:54:03.514464","ECCENTRICITY":"0.00016400","SITE":"AFWTR","COUNTRY_CODE":"US","EPHEMERIS_TYPE":"0","MEAN_MOTION":"15.01263765","CENTER_NAME":"EARTH","PERIOD":"95.919","MEAN_MOTION_DOT":"0.00000787","REF_FRAME":"TEME","CLASSIFICATION_TYPE":"U","RCS_SIZE":"LARGE","REV_AT_EPOCH":"5137","OBJECT_NAME":"STARLINK-4369","BSTAR":"0.00006583800000","INCLINATION":"97.6576","ARG_OF_PERICENTER":"107.2549","DECAY_DATE":null,"PERIAPSIS":"561.862","LAUNCH_DATE":"2022-07-22","MEAN_ANOMALY":"252.8855","ELEMENT_SET_NO":"999","MEAN_MOTION_DDOT":"0.0000000000000","RA_OF_ASC_NODE":"237.0887","GP_ID":"234537924","NORAD_CAT_ID":"53191","TLE_LINE1":"1 53191U 22084C   23176.12087401  .00000787  00000-0  65838-4 0  9993","OBJECT_ID":"2022-084C","FILE":"3942146","SEMIMAJOR_AXIS":"6941.135","TIME_SYSTEM":"UTC"}];
